[Satellite]
VERSION=1.1
NAME=SKYNET 5D
NICKNAME=SKYNET 5D
TLE1=1 39034U 12075A   17186.13344600  .00000094  00000-0  00000-0 0  9991
TLE2=2 39034   0.0694 350.2789 0003727 118.6458 275.1924  1.00275611 16747
